{
  "type": "FeatureCollection",
  "features": [
    {
      "type": "Feature",
      "properties": {
        "norad_id": 22675,
        "name": "COSMOS 2251",
        "group": "cosmos-2251-debris",
        "lat": 27.762510570229583,
        "lon": -24.247415482289988,
        "alt_km": 763.7538734353084,
        "timestamp": "2025-12-06T14:35:37.518401+00:00",
        "meta_object_name": "COSMOS 2251",
        "meta_object_id": "1993-036A",
        "meta_epoch": "2025-12-06T06:04:59.816640",
        "meta_mean_motion": 14.33201769,
        "meta_eccentricity": 0.0023757,
        "meta_inclination": 74.0393,
        "meta_ra_of_asc_node": 327.7356,
        "meta_arg_of_pericenter": 52.0498,
        "meta_mean_anomaly": 308.2795,
        "meta_ephemeris_type": 0,
        "meta_classification_type": "U",
        "meta_norad_cat_id": 22675,
        "meta_element_set_no": 999,
        "meta_rev_at_epoch": 69680,
        "meta_bstar": 9.9339037e-05,
        "meta_mean_motion_dot": 2.48e-06,
        "meta_mean_motion_ddot": 0,
        "tle_line1": "1 22675U 93036A   25340.25347010  .00000248  00000+0  99339-4 0  9999",
        "tle_line2": "2 22675  74.0393 327.7356 0023757  52.0498 308.2795 14.33201769696804"
      },
      "geometry": {
        "type": "Point",
        "coordinates": [
          -24.247415482289988,
          27.762510570229583
        ]
      }
    },
    {
      "type": "Feature",
      "properties": {
        "norad_id": 33757,
        "name": "COSMOS 2251 DEB",
        "group": "cosmos-2251-debris",
        "lat": 72.13796567662324,
        "lon": 37.45548653738459,
        "alt_km": 776.3172677449529,
        "timestamp": "2025-12-06T14:35:37.518425+00:00",
        "meta_object_name": "COSMOS 2251 DEB",
        "meta_object_id": "1993-036E",
        "meta_epoch": "2025-12-06T07:47:54.154176",
        "meta_mean_motion": 14.32578508,
        "meta_eccentricity": 0.00150049,
        "meta_inclination": 74.0366,
        "meta_ra_of_asc_node": 335.3213,
        "meta_arg_of_pericenter": 349.8125,
        "meta_mean_anomaly": 72.2779,
        "meta_ephemeris_type": 0,
        "meta_classification_type": "U",
        "meta_norad_cat_id": 33757,
        "meta_element_set_no": 999,
        "meta_rev_at_epoch": 87904,
        "meta_bstar": 8.5345516e-05,
        "meta_mean_motion_dot": 2.06e-06,
        "meta_mean_motion_ddot": 0,
        "tle_line1": "1 33757U 93036E   25340.32493234  .00000206  00000+0  85346-4 0  9997",
        "tle_line2": "2 33757  74.0366 335.3213 0015004 349.8125  72.2779 14.32578508879040"
      },
      "geometry": {
        "type": "Point",
        "coordinates": [
          37.45548653738459,
          72.13796567662324
        ]
      }
    },
    {
      "type": "Feature",
      "properties": {
        "norad_id": 33758,
        "name": "COSMOS 2251 DEB",
        "group": "cosmos-2251-debris",
        "lat": -30.16990591529743,
        "lon": -143.00490438527865,
        "alt_km": 716.017051690782,
        "timestamp": "2025-12-06T14:35:37.518439+00:00",
        "meta_object_name": "COSMOS 2251 DEB",
        "meta_object_id": "1993-036F",
        "meta_epoch": "2025-12-06T03:52:07.565952",
        "meta_mean_motion": 14.5153136,
        "meta_eccentricity": 0.00175366,
        "meta_inclination": 74.0284,
        "meta_ra_of_asc_node": 227.4199,
        "meta_arg_of_pericenter": 294.6943,
        "meta_mean_anomaly": 219.5767,
        "meta_ephemeris_type": 0,
        "meta_classification_type": "U",
        "meta_norad_cat_id": 33758,
        "meta_element_set_no": 999,
        "meta_rev_at_epoch": 88209,
        "meta_bstar": 0.0014614251,
        "meta_mean_motion_dot": 5.834e-05,
        "meta_mean_motion_ddot": 0,
        "tle_line1": "1 33758U 93036F   25340.16119868  .00005834  00000+0  14614-2 0  9998",
        "tle_line2": "2 33758  74.0284 227.4199 0017536 294.6943 219.5767 14.51531360882099"
      },
      "geometry": {
        "type": "Point",
        "coordinates": [
          -143.00490438527865,
          -30.16990591529743
        ]
      }
    },
    {
      "type": "Feature",
      "properties": {
        "norad_id": 33760,
        "name": "COSMOS 2251 DEB",
        "group": "cosmos-2251-debris",
        "lat": -71.5819571834001,
        "lon": 172.00785216421264,
        "alt_km": 789.1790809806571,
        "timestamp": "2025-12-06T14:35:37.518451+00:00",
        "meta_object_name": "COSMOS 2251 DEB",
        "meta_object_id": "1993-036H",
        "meta_epoch": "2025-12-06T07:01:55.282080",
        "meta_mean_motion": 14.35665905,
        "meta_eccentricity": 0.00196031,
        "meta_inclination": 74.0318,
        "meta_ra_of_asc_node": 293.2878,
        "meta_arg_of_pericenter": 33.4392,
        "meta_mean_anomaly": 39.6601,
        "meta_ephemeris_type": 0,
        "meta_classification_type": "U",
        "meta_norad_cat_id": 33760,
        "meta_element_set_no": 999,
        "meta_rev_at_epoch": 88032,
        "meta_bstar": 0.00022537137,
        "meta_mean_motion_dot": 6.26e-06,
        "meta_mean_motion_ddot": 0,
        "tle_line1": "1 33760U 93036H   25340.29300095  .00000626  00000+0  22537-3 0  9997",
        "tle_line2": "2 33760  74.0318 293.2878 0019603  33.4392  39.6601 14.35665905880326"
      },
      "geometry": {
        "type": "Point",
        "coordinates": [
          172.00785216421264,
          -71.5819571834001
        ]
      }
    },
    {
      "type": "Feature",
      "properties": {
        "norad_id": 33761,
        "name": "COSMOS 2251 DEB",
        "group": "cosmos-2251-debris",
        "lat": 36.73660153191321,
        "lon": -84.12483574426511,
        "alt_km": 737.6632749953069,
        "timestamp": "2025-12-06T14:35:37.518462+00:00",
        "meta_object_name": "COSMOS 2251 DEB",
        "meta_object_id": "1993-036J",
        "meta_epoch": "2025-12-04T21:04:01.127712",
        "meta_mean_motion": 14.42504735,
        "meta_eccentricity": 0.0022795,
        "meta_inclination": 74.037,
        "meta_ra_of_asc_node": 266.7483,
        "meta_arg_of_pericenter": 348.175,
        "meta_mean_anomaly": 68.3837,
        "meta_ephemeris_type": 0,
        "meta_classification_type": "U",
        "meta_norad_cat_id": 33761,
        "meta_element_set_no": 999,
        "meta_rev_at_epoch": 88121,
        "meta_bstar": 0.0010906,
        "meta_mean_motion_dot": 3.601e-05,
        "meta_mean_motion_ddot": 0,
        "tle_line1": "1 33761U 93036J   25338.87779083  .00003601  00000+0  10906-2 0  9998",
        "tle_line2": "2 33761  74.0370 266.7483 0022795 348.1750  68.3837 14.42504735881212"
      },
      "geometry": {
        "type": "Point",
        "coordinates": [
          -84.12483574426511,
          36.73660153191321
        ]
      }
    },
    {
      "type": "Feature",
      "properties": {
        "norad_id": 33762,
        "name": "COSMOS 2251 DEB",
        "group": "cosmos-2251-debris",
        "lat": -58.974139012046635,
        "lon": 169.6457524174026,
        "alt_km": 794.5444712068102,
        "timestamp": "2025-12-06T14:35:37.518473+00:00",
        "meta_object_name": "COSMOS 2251 DEB",
        "meta_object_id": "1993-036K",
        "meta_epoch": "2025-12-06T07:03:32.178816",
        "meta_mean_motion": 14.33660666,
        "meta_eccentricity": 0.00147424,
        "meta_inclination": 74.0413,
        "meta_ra_of_asc_node": 321.8115,
        "meta_arg_of_pericenter": 25.1757,
        "meta_mean_anomaly": 38.2081,
        "meta_ephemeris_type": 0,
        "meta_classification_type": "U",
        "meta_norad_cat_id": 33762,
        "meta_element_set_no": 999,
        "meta_rev_at_epoch": 87955,
        "meta_bstar": 9.8811126e-05,
        "meta_mean_motion_dot": 2.48e-06,
        "meta_mean_motion_ddot": 0,
        "tle_line1": "1 33762U 93036K   25340.29412244  .00000248  00000+0  98811-4 0  9998",
        "tle_line2": "2 33762  74.0413 321.8115 0014742  25.1757  38.2081 14.33660666879555"
      },
      "geometry": {
        "type": "Point",
        "coordinates": [
          169.6457524174026,
          -58.974139012046635
        ]
      }
    },
    {
      "type": "Feature",
      "properties": {
        "norad_id": 33764,
        "name": "COSMOS 2251 DEB",
        "group": "cosmos-2251-debris",
        "lat": -67.65433791825716,
        "lon": 148.12176948029247,
        "alt_km": 749.8434470093935,
        "timestamp": "2025-12-06T14:35:37.518483+00:00",
        "meta_object_name": "COSMOS 2251 DEB",
        "meta_object_id": "1993-036M",
        "meta_epoch": "2025-12-06T07:27:00.060768",
        "meta_mean_motion": 14.39488544,
        "meta_eccentricity": 0.0024194,
        "meta_inclination": 74.0344,
        "meta_ra_of_asc_node": 284.5287,
        "meta_arg_of_pericenter": 251.387,
        "meta_mean_anomaly": 260.8515,
        "meta_ephemeris_type": 0,
        "meta_classification_type": "U",
        "meta_norad_cat_id": 33764,
        "meta_element_set_no": 999,
        "meta_rev_at_epoch": 88064,
        "meta_bstar": 0.000757603,
        "meta_mean_motion_dot": 2.344e-05,
        "meta_mean_motion_ddot": 0,
        "tle_line1": "1 33764U 93036M   25340.31041737  .00002344  00000+0  75760-3 0  9994",
        "tle_line2": "2 33764  74.0344 284.5287 0024194 251.3870 260.8515 14.39488544880642"
      },
      "geometry": {
        "type": "Point",
        "coordinates": [
          148.12176948029247,
          -67.65433791825716
        ]
      }
    }
  ]
}